ONEWEB-0057             
1 45160U 20008AF  25347.29343885  .00000070  00000+0  16361-3 0  9995
2 45160  87.8811  73.3321 0001741 111.3393 248.7920 13.10375083284001
ONEWEB-0058             
1 45161U 20008AG  25347.28014668 -.00000407  00000+0 -12013-2 0  9994
2 45161  87.8808  73.3465 0001747  95.9588 264.1738 13.10375450284070
ONEWEB-0059             
1 45162U 20008AH  25347.27668331 -.00000880  00000+0 -25563-2 0  9995
2 45162  87.8807  73.3468 0001750 102.7414 257.3909 13.10369709283974
ONEWEB-0062             
1 45163U 20008AJ  25347.30243228  .00000567  00000+0  15870-2 0  9994
2 45163  87.8811  73.3169 0001609  86.4250 273.7062 13.10374954283843
ONEWEB-0065             
1 45164U 20008AK  25347.25666446 -.00000096  00000+0 -31077-3 0  9997
2 45164  87.8800  73.3419 0001661 118.1979 241.9317 13.10370178283539
ONEWEB-0066             
1 45424U 20020A   25347.21146679  .00000017  00000+0  11860-4 0  9997
2 45424  87.8862  58.0970 0001976 104.4731 255.6616 13.11413366278302
ONEWEB-0067             
1 45425U 20020B   25347.24890425 -.00000008  00000+0 -57020-4 0  9996
2 45425  87.8870  57.9932 0001814 106.3583 253.7745 13.11418996278367
ONEWEB-0080             
1 45426U 20020C   25347.25809260  .00000398  00000+0  10878-2 0  9993
2 45426  87.8865  58.0888 0001842  93.0315 267.1024 13.11418801278331
ONEWEB-0090             
1 45427U 20020D   25347.20128742  .00000421  00000+0  11525-2 0  9995
2 45427  87.8862  58.1015 0001689 101.9113 258.2204 13.11417241278299
ONEWEB-0061             
1 45428U 20020E   25347.23333966 -.00000675  00000+0 -19416-2 0  9995
2 45428  87.8868  58.0770 0001800 103.4922 256.6407 13.11418512278258
ONEWEB-0081             
1 45429U 20020F   25347.21485407 -.00000121  00000+0 -37683-3 0  9995
2 45429  87.8864  58.0960 0001923 105.4248 254.7093 13.11412804278365
ONEWEB-0069             
1 45430U 20020G   25347.20383570  .00000348  00000+0  94524-3 0  9990
2 45430  87.8861  58.0945 0001845 104.1693 255.9640 13.11414812278294
ONEWEB-0031             
1 45431U 20020H   25347.25214977  .00000136  00000+0  34800-3 0  9996
2 45431  87.8857  58.1085 0001638  96.6339 263.4975 13.11420427278281
ONEWEB-0027             
1 45432U 20020J   25347.18630614  .00000013  00000+0 -19833-6 0  9996
2 45432  87.9121  42.8241 0001396  95.1634 264.9657 13.17647684281867
ONEWEB-0064             
1 45433U 20020K   25347.25045372  .00000030  00000+0  49218-4 0  9992
2 45433  87.8857  58.0983 0001566  97.0869 263.0437 13.11420737278319
ONEWEB-0018             
1 45434U 20020L   25347.20637366  .00000235  00000+0  62821-3 0  9999
2 45434  87.8863  58.0976 0001891 100.6809 259.4532 13.11416871278257
ONEWEB-0083             
1 45435U 20020M   25347.27335367  .00000621  00000+0  17159-2 0  9995
2 45435  87.8863  58.0730 0001689 101.6429 258.4888 13.11416328278306
