[{"OBJECT_NAME":"ONEWEB-0057","OBJECT_ID":"2020-008AF","EPOCH":"2025-12-13T07:02:33.116640","MEAN_MOTION":13.10375083,"ECCENTRICITY":0.00017416,"INCLINATION":87.8811,"RA_OF_ASC_NODE":73.3321,"ARG_OF_PERICENTER":111.3393,"MEAN_ANOMALY":248.792,"EPHEMERIS_TYPE":0,"CLASSIFICATION_TYPE":"U","NORAD_CAT_ID":45160,"ELEMENT_SET_NO":999,"REV_AT_EPOCH":28400,"BSTAR":0.00016361208,"MEAN_MOTION_DOT":7.0e-7,"MEAN_MOTION_DDOT":0},{"OBJECT_NAME":"ONEWEB-0058","OBJECT_ID":"2020-008AG","EPOCH":"2025-12-13T06:43:24.673152","MEAN_MOTION":13.1037545,"ECCENTRICITY":0.00017477,"INCLINATION":87.8808,"RA_OF_ASC_NODE":73.3465,"ARG_OF_PERICENTER":95.9588,"MEAN_ANOMALY":264.1738,"EPHEMERIS_TYPE":0,"CLASSIFICATION_TYPE":"U","NORAD_CAT_ID":45161,"ELEMENT_SET_NO":999,"REV_AT_EPOCH":28407,"BSTAR":-0.001201302,"MEAN_MOTION_DOT":-4.07e-6,"MEAN_MOTION_DDOT":0},{"OBJECT_NAME":"ONEWEB-0059","OBJECT_ID":"2020-008AH","EPOCH":"2025-12-13T06:38:25.437984","MEAN_MOTION":13.10369709,"ECCENTRICITY":0.00017508,"INCLINATION":87.8807,"RA_OF_ASC_NODE":73.3468,"ARG_OF_PERICENTER":102.7414,"MEAN_ANOMALY":257.3909,"EPHEMERIS_TYPE":0,"CLASSIFICATION_TYPE":"U","NORAD_CAT_ID":45162,"ELEMENT_SET_NO":999,"REV_AT_EPOCH":28397,"BSTAR":-0.0025563047,"MEAN_MOTION_DOT":-8.8e-6,"MEAN_MOTION_DDOT":0},{"OBJECT_NAME":"ONEWEB-0062","OBJECT_ID":"2020-008AJ","EPOCH":"2025-12-13T07:15:30.148992","MEAN_MOTION":13.10374954,"ECCENTRICITY":0.00016091,"INCLINATION":87.8811,"RA_OF_ASC_NODE":73.3169,"ARG_OF_PERICENTER":86.425,"MEAN_ANOMALY":273.7062,"EPHEMERIS_TYPE":0,"CLASSIFICATION_TYPE":"U","NORAD_CAT_ID":45163,"ELEMENT_SET_NO":999,"REV_AT_EPOCH":28384,"BSTAR":0.0015869758,"MEAN_MOTION_DOT":5.67e-6,"MEAN_MOTION_DDOT":0},{"OBJECT_NAME":"ONEWEB-0065","OBJECT_ID":"2020-008AK","EPOCH":"2025-12-13T06:09:35.809344","MEAN_MOTION":13.10370178,"ECCENTRICITY":0.00016617,"INCLINATION":87.88,"RA_OF_ASC_NODE":73.3419,"ARG_OF_PERICENTER":118.1979,"MEAN_ANOMALY":241.9317,"EPHEMERIS_TYPE":0,"CLASSIFICATION_TYPE":"U","NORAD_CAT_ID":45164,"ELEMENT_SET_NO":999,"REV_AT_EPOCH":28353,"BSTAR":-0.00031077101,"MEAN_MOTION_DOT":-9.6e-7,"MEAN_MOTION_DDOT":0},{"OBJECT_NAME":"ONEWEB-0066","OBJECT_ID":"2020-020A","EPOCH":"2025-12-13T05:04:30.730656","MEAN_MOTION":13.11413366,"ECCENTRICITY":0.00019767,"INCLINATION":87.8862,"RA_OF_ASC_NODE":58.097,"ARG_OF_PERICENTER":104.4731,"MEAN_ANOMALY":255.6616,"EPHEMERIS_TYPE":0,"CLASSIFICATION_TYPE":"U","NORAD_CAT_ID":45424,"ELEMENT_SET_NO":999,"REV_AT_EPOCH":27830,"BSTAR":1.1859527e-5,"MEAN_MOTION_DOT":1.7e-7,"MEAN_MOTION_DDOT":0},{"OBJECT_NAME":"ONEWEB-0067","OBJECT_ID":"2020-020B","EPOCH":"2025-12-13T05:58:25.327200","MEAN_MOTION":13.11418996,"ECCENTRICITY":0.00018145,"INCLINATION":87.887,"RA_OF_ASC_NODE":57.9932,"ARG_OF_PERICENTER":106.3583,"MEAN_ANOMALY":253.7745,"EPHEMERIS_TYPE":0,"CLASSIFICATION_TYPE":"U","NORAD_CAT_ID":45425,"ELEMENT_SET_NO":999,"REV_AT_EPOCH":27836,"BSTAR":-5.7020372e-5,"MEAN_MOTION_DOT":-8.0e-8,"MEAN_MOTION_DDOT":0},{"OBJECT_NAME":"ONEWEB-0080","OBJECT_ID":"2020-020C","EPOCH":"2025-12-13T06:11:39.200640","MEAN_MOTION":13.11418801,"ECCENTRICITY":0.00018428,"INCLINATION":87.8865,"RA_OF_ASC_NODE":58.0888,"ARG_OF_PERICENTER":93.0315,"MEAN_ANOMALY":267.1024,"EPHEMERIS_TYPE":0,"CLASSIFICATION_TYPE":"U","NORAD_CAT_ID":45426,"ELEMENT_SET_NO":999,"REV_AT_EPOCH":27833,"BSTAR":0.0010878109,"MEAN_MOTION_DOT":3.98e-6,"MEAN_MOTION_DDOT":0},{"OBJECT_NAME":"ONEWEB-0090","OBJECT_ID":"2020-020D","EPOCH":"2025-12-13T04:49:51.233088","MEAN_MOTION":13.11417241,"ECCENTRICITY":0.00016895,"INCLINATION":87.8862,"RA_OF_ASC_NODE":58.1015,"ARG_OF_PERICENTER":101.9113,"MEAN_ANOMALY":258.2204,"EPHEMERIS_TYPE":0,"CLASSIFICATION_TYPE":"U","NORAD_CAT_ID":45427,"ELEMENT_SET_NO":999,"REV_AT_EPOCH":27829,"BSTAR":0.0011524937,"MEAN_MOTION_DOT":4.21e-6,"MEAN_MOTION_DDOT":0},{"OBJECT_NAME":"ONEWEB-0061","OBJECT_ID":"2020-020E","EPOCH":"2025-12-13T05:36:00.546624","MEAN_MOTION":13.11418512,"ECCENTRICITY":0.00018,"INCLINATION":87.8868,"RA_OF_ASC_NODE":58.077,"ARG_OF_PERICENTER":103.4922,"MEAN_ANOMALY":256.6407,"EPHEMERIS_TYPE":0,"CLASSIFICATION_TYPE":"U","NORAD_CAT_ID":45428,"ELEMENT_SET_NO":999,"REV_AT_EPOCH":27825,"BSTAR":-0.0019415902,"MEAN_MOTION_DOT":-6.75e-6,"MEAN_MOTION_DDOT":0},{"OBJECT_NAME":"ONEWEB-0081","OBJECT_ID":"2020-020F","EPOCH":"2025-12-13T05:09:23.391648","MEAN_MOTION":13.11412804,"ECCENTRICITY":0.00019238,"INCLINATION":87.8864,"RA_OF_ASC_NODE":58.096,"ARG_OF_PERICENTER":105.4248,"MEAN_ANOMALY":254.7093,"EPHEMERIS_TYPE":0,"CLASSIFICATION_TYPE":"U","NORAD_CAT_ID":45429,"ELEMENT_SET_NO":999,"REV_AT_EPOCH":27836,"BSTAR":-0.00037683258,"MEAN_MOTION_DOT":-1.21e-6,"MEAN_MOTION_DDOT":0},{"OBJECT_NAME":"ONEWEB-0069","OBJECT_ID":"2020-020G","EPOCH":"2025-12-13T04:53:31.404480","MEAN_MOTION":13.11414812,"ECCENTRICITY":0.00018451,"INCLINATION":87.8861,"RA_OF_ASC_NODE":58.0945,"ARG_OF_PERICENTER":104.1693,"MEAN_ANOMALY":255.964,"EPHEMERIS_TYPE":0,"CLASSIFICATION_TYPE":"U","NORAD_CAT_ID":45430,"ELEMENT_SET_NO":999,"REV_AT_EPOCH":27829,"BSTAR":0.00094524376,"MEAN_MOTION_DOT":3.48e-6,"MEAN_MOTION_DDOT":0},{"OBJECT_NAME":"ONEWEB-0031","OBJECT_ID":"2020-020H","EPOCH":"2025-12-13T06:03:05.740128","MEAN_MOTION":13.11420427,"ECCENTRICITY":0.00016387,"INCLINATION":87.8857,"RA_OF_ASC_NODE":58.1085,"ARG_OF_PERICENTER":96.6339,"MEAN_ANOMALY":263.4975,"EPHEMERIS_TYPE":0,"CLASSIFICATION_TYPE":"U","NORAD_CAT_ID":45431,"ELEMENT_SET_NO":999,"REV_AT_EPOCH":27828,"BSTAR":0.0003480045,"MEAN_MOTION_DOT":1.36e-6,"MEAN_MOTION_DDOT":0},{"OBJECT_NAME":"ONEWEB-0027","OBJECT_ID":"2020-020J","EPOCH":"2025-12-13T04:28:16.850496","MEAN_MOTION":13.17647684,"ECCENTRICITY":0.00013966,"INCLINATION":87.9121,"RA_OF_ASC_NODE":42.8241,"ARG_OF_PERICENTER":95.1634,"MEAN_ANOMALY":264.9657,"EPHEMERIS_TYPE":0,"CLASSIFICATION_TYPE":"U","NORAD_CAT_ID":45432,"ELEMENT_SET_NO":999,"REV_AT_EPOCH":28186,"BSTAR":-1.98329e-7,"MEAN_MOTION_DOT":1.3e-7,"MEAN_MOTION_DDOT":0},{"OBJECT_NAME":"ONEWEB-0064","OBJECT_ID":"2020-020K","EPOCH":"2025-12-13T06:00:39.201408","MEAN_MOTION":13.11420737,"ECCENTRICITY":0.0001566,"INCLINATION":87.8857,"RA_OF_ASC_NODE":58.0983,"ARG_OF_PERICENTER":97.0869,"MEAN_ANOMALY":263.0437,"EPHEMERIS_TYPE":0,"CLASSIFICATION_TYPE":"U","NORAD_CAT_ID":45433,"ELEMENT_SET_NO":999,"REV_AT_EPOCH":27831,"BSTAR":4.9217836e-5,"MEAN_MOTION_DOT":3.0e-7,"MEAN_MOTION_DDOT":0},{"OBJECT_NAME":"ONEWEB-0018","OBJECT_ID":"2020-020L","EPOCH":"2025-12-13T04:57:10.684224","MEAN_MOTION":13.11416871,"ECCENTRICITY":0.00018916,"INCLINATION":87.8863,"RA_OF_ASC_NODE":58.0976,"ARG_OF_PERICENTER":100.6809,"MEAN_ANOMALY":259.4532,"EPHEMERIS_TYPE":0,"CLASSIFICATION_TYPE":"U","NORAD_CAT_ID":45434,"ELEMENT_SET_NO":999,"REV_AT_EPOCH":27825,"BSTAR":0.00062820605,"MEAN_MOTION_DOT":2.35e-6,"MEAN_MOTION_DDOT":0},{"OBJECT_NAME":"ONEWEB-0083","OBJECT_ID":"2020-020M","EPOCH":"2025-12-13T06:33:37.757088","MEAN_MOTION":13.11416328,"ECCENTRICITY":0.00016898,"INCLINATION":87.8863,"RA_OF_ASC_NODE":58.073,"ARG_OF_PERICENTER":101.6429,"MEAN_ANOMALY":258.4888,"EPHEMERIS_TYPE":0,"CLASSIFICATION_TYPE":"U","NORAD_CAT_ID":45435,"ELEMENT_SET_NO":999,"REV_AT_EPOCH":27830,"BSTAR":0.0017159326,"MEAN_MOTION_DOT":6.21e-6,"MEAN_MOTION_DDOT":0}]
